{
  "breweries": [
    {
      "id": 1,
      "img": "/static/img/molen.jpeg",
      "address": "Overtocht 43",
      "city": "Bodegraven",
      "name": "Brouwerij de Molen",
      "open": [
        "Tuesday",
        "Wednesday",
        "Thursday",
        "Friday",
        "Saturday",
        "Sunday"
      ],
      "zipcode": "2411 BT"
    },
    {
      "id": 2,
      "img": "/static/img/naeckte.png",
      "address": "Weverij 5",
      "city": "Amstelveen",
      "name": "de naeckte brouwers",
      "open": [
        "Wednesday"
      ],
      "zipcode": "1185 ZE"
    },
    {
      "id": 3,
      "img": "/static/img/jopen.png",
      "address": "Gedempte Voldersgracht 2",
      "city": "Haarlem",
      "name": "Jopen",
      "open": [
        "Monday",
        "Tuesday",
        "Wednesday",
        "Thursday",
        "Friday",
        "Saturday",
        "Sunday"
      ],
      "zipcode": "2011 WB"
    },
    {
      "id": 4,
      "img": "/static/img/maximus.jpeg",
      "address": "Pratumplaats 2A",
      "city": "Utrecht",
      "name": "Maximus",
      "open": [
        "Wednesday",
        "Thursday",
        "Friday",
        "Saturday",
        "Sunday"
      ],
      "zipcode": "3454 NA"
    },
    {
      "id": 5,
      "img": "/static/img/pelgrim.png",
      "address": "Aelbrechtskolk 12",
      "city": "Rotterdam",
      "name": "Stadsbrouwerij De Pelgrim",
      "open": [
        "Monday",
        "Tuesday",
        "Wednesday",
        "Thursday",
        "Friday",
        "Saturday"
      ],
      "zipcode": "3024 RE"
    },
    {
      "id": 6,
      "img": "/static/img/anker.jpg",
      "address": "Guido Gezellelaan 49",
      "city": "Mechelen, BelgiÃ«",
      "name": "Brouwerij Het Anker",
      "open": [
        "Tuesday",
        "Wednesday",
        "Thursday",
        "Friday"
      ],
      "zipcode": "2800"
    },
    {
      "id": 7,
      "img": "/static/img/dampegheest.jpg",
      "address": "Achterweg 22",
      "city": "Limmen",
      "name": "Brouwerij Dampegheest",
      "open": [
        "Friday",
        "Saturday",
        "Sunday"
      ],
      "zipcode": "1906 AG"
    },
    {
      "id": 8,
      "img": "/static/img/ij.jpg",
      "address": "Funenkade 7",
      "city": "Amsterdam",
      "name": "Brouwerij 't IJ",
      "open": [
        "Tuesday",
        "Wednesday",
        "Thursday",
        "Friday"
      ],
      "zipcode": "1018 AL"
    },
    {
      "id": 9,
      "img": "/static/img/leidsch.png",
      "address": "Flevoweg 35a",
      "city": "Leiden",
      "name": "Leidsch Bier",
      "open": [
        "Monday",
        "Tuesday",
        "Wednesday",
        "Thursday",
        "Friday"
      ],
      "zipcode": "2318 BX"
    },
    {
      "id": 10,
      "img": "/static/img/texels.png",
      "address": "Schilderweg 214",
      "city": "Oudeschild",
      "name": "Texelse Bierbrouwerij",
      "open": [
        "Thursday",
        "Friday",
        "Saturday"
      ],
      "zipcode": "1792 CK"
    },
    {
      "id": 11,
      "img": "/static/img/duits.jpg",
      "address": "Schoolstraat 77",
      "city": "Vleuten",
      "name": "Speciaalbierbrouwerij Duits & Lauret",
      "open": [
        "Monday",
        "Tuesday",
        "Wednesday"
      ],
      "zipcode": "3451 AC"
    },
    {
      "id": 12,
      "img": "/static/img/maar.png",
      "address": "Maar 2",
      "city": "Jabeek",
      "name": "Dorpsbrouwerij de Maar",
      "open": [
        "Tuesday",
        "Wednesday",
        "Thursday",
        "Friday",
        "Saturday"
      ],
      "zipcode": "6454 AM"
    }
  ]
}